[478patlas(2024)]
absolute_magnitude             = 13.5
discovery                      = 2023-12-18
iau_designation                = P/2023 Y3
name                           = 478P/ATLAS (2024)
orbit_ArgOfPericenter          = 13.2256
orbit_AscendingNode            = 127.2651
orbit_Eccentricity             = 0.343707
orbit_Epoch                    = 2460749.5
orbit_Inclination              = 12.5245
orbit_PericenterDistance       = 2.393811
orbit_TimeAtPericenter         = 2460432.6123
orbit_good                     = 1000
ref                            = MPEC 2024-F34
slope_parameter                = 4
type                           = comet

[479pelenin(2024)]
absolute_magnitude             = 15
discoverer                     = L. Elenin, I. Molotov
discovery                      = 2011-07-07
iau_designation                = P/2011 NO1
name                           = 479P/Elenin (2024)
orbit_ArgOfPericenter          = 263.5111
orbit_AscendingNode            = 295.8322
orbit_Eccentricity             = 0.778877
orbit_Epoch                    = 2460749.5
orbit_Inclination              = 15.3996
orbit_PericenterDistance       = 1.243388
orbit_TimeAtPericenter         = 2460435.7479
orbit_good                     = 1000
ref                            = MPEC 2024-F34
slope_parameter                = 4
type                           = comet

[47pashbrookjackson(2025)]
absolute_magnitude             = 1
discoverer                     = J. Ashbrook, C.V. Jackson
discovery                      = 1948-08-26
discovery_code                 = 1948i
iau_designation                = P/1948 Q1
name                           = 47P/Ashbrook-Jackson (2025)
orbit_ArgOfPericenter          = 357.9063
orbit_AscendingNode            = 356.8844
orbit_Eccentricity             = 0.318255
orbit_Epoch                    = 2460749.5
orbit_Inclination              = 13.0381
orbit_PericenterDistance       = 2.807465
orbit_TimeAtPericenter         = 2460976.4624
orbit_good                     = 1000
perihelion_code                = 1948 IX
ref                            = MPEC 2024-PC5
slope_parameter                = 11.2
type                           = comet

[486pleonard(2025)]
absolute_magnitude             = 14.5
name                           = 486P/Leonard (2025)
orbit_ArgOfPericenter          = 93.9462
orbit_AscendingNode            = 219.0257
orbit_Eccentricity             = 0.363599
orbit_Epoch                    = 2460749.5
orbit_Inclination              = 2.2095
orbit_PericenterDistance       = 2.308936
orbit_TimeAtPericenter         = 2460769.3471
orbit_good                     = 1000
ref                            = MPEC 2024-R10
slope_parameter                = 4
type                           = comet

[487psidingspring(2024)]
absolute_magnitude             = 13.5
name                           = 487P/SidingSpring (2024)
orbit_ArgOfPericenter          = 0.8538
orbit_AscendingNode            = 49.2073
orbit_Eccentricity             = 0.648585
orbit_Epoch                    = 2460749.5
orbit_Inclination              = 39.3666
orbit_PericenterDistance       = 1.81488
orbit_TimeAtPericenter         = 2460604.124
orbit_good                     = 1000
ref                            = MPEC 2024-X74
slope_parameter                = 4
type                           = comet

[488pneatpanstarrs(2024)]
absolute_magnitude             = 16.5
name                           = 488P/NEAT-PANSTARRS (2024)
orbit_ArgOfPericenter          = 1.5547
orbit_AscendingNode            = 324.0314
orbit_Eccentricity             = 0.550781
orbit_Epoch                    = 2460749.5
orbit_Inclination              = 11.3651
orbit_PericenterDistance       = 1.678384
orbit_TimeAtPericenter         = 2460449.7935
orbit_good                     = 1000
ref                            = MPEC 2024-UA9
slope_parameter                = 4
type                           = comet

[489pdenning(2025)]
absolute_magnitude             = 15.5
name                           = 489P/Denning (2025)
orbit_ArgOfPericenter          = 109.4402
orbit_AscendingNode            = 20.6115
orbit_Eccentricity             = 0.647059
orbit_Epoch                    = 2460749.5
orbit_Inclination              = 4.0267
orbit_PericenterDistance       = 1.560994
orbit_TimeAtPericenter         = 2461013.8572
orbit_good                     = 1000
ref                            = MPEC 2024-Q14
slope_parameter                = 4
type                           = comet

[48pjohnson(2025)]
absolute_magnitude             = 10
discoverer                     = E.L. Johnson
discovery                      = 1949-08-15
discovery_code                 = 1949d
iau_designation                = P/1949 Q1
name                           = 48P/Johnson (2025)
orbit_ArgOfPericenter          = 216.7756
orbit_AscendingNode            = 110.0643
orbit_Eccentricity             = 0.426577
orbit_Epoch                    = 2460749.5
orbit_Inclination              = 12.2018
orbit_PericenterDistance       = 2.006571
orbit_TimeAtPericenter         = 2460737.1452
orbit_good                     = 1000
perihelion_code                = 1949 II
ref                            = MPEC 2024-UA9
slope_parameter                = 6
type                           = comet

[490patlas(2024)]
absolute_magnitude             = 21
name                           = 490P/ATLAS (2024)
orbit_ArgOfPericenter          = 332.5249
orbit_AscendingNode            = 307.6068
orbit_Eccentricity             = 0.647215
orbit_Epoch                    = 2460749.5
orbit_Inclination              = 12.2663
orbit_PericenterDistance       = 1.068793
orbit_TimeAtPericenter         = 2460581.6837
orbit_good                     = 963
ref                            = MPEC 2024-X74
slope_parameter                = 4
type                           = comet

[491pspacewatchpanstarrs(2024)]
absolute_magnitude             = 9.5
name                           = 491P/Spacewatch-PANSTARRS (2024)
orbit_ArgOfPericenter          = 298.8954
orbit_AscendingNode            = 311.6857
orbit_Eccentricity             = 0.258677
orbit_Epoch                    = 2460749.5
orbit_Inclination              = 9.3659
orbit_PericenterDistance       = 3.716572
orbit_TimeAtPericenter         = 2460559.6035
orbit_good                     = 1000
ref                            = MPEC 2024-UQ8
slope_parameter                = 4
type                           = comet

[492plinear(2024)]
absolute_magnitude             = 15
name                           = 492P/LINEAR (2024)
orbit_ArgOfPericenter          = 40.9909
orbit_AscendingNode            = 11.3075
orbit_Eccentricity             = 0.690726
orbit_Epoch                    = 2460749.5
orbit_Inclination              = 11.4005
orbit_PericenterDistance       = 1.782056
orbit_TimeAtPericenter         = 2460511.9767
orbit_good                     = 1000
ref                            = MPEC 2024-X74
slope_parameter                = 4
type                           = comet

